1 29155U 06018A   12271.50618696 -.00000277  00000-0  10000-3 0  2388
2 29155 000.0947 128.2978 0002879 003.8546 342.0150 01.00265762 23271